*******************************************************************************
Ephemeris / WWW_USER Sat Dec 17 19:16:25 2016 Pasadena, USA      / Horizons    
*******************************************************************************
Target body name: Moon (301)                      {source: DE431mx}
Center body name: Earth (399)                     {source: DE431mx}
Center-site name: (user defined site below)
*******************************************************************************
Start time      : A.D. 2021-Sep-01 00:00:00.0000 UT      
Stop  time      : A.D. 2022-Jan-02 00:00:00.0000 UT      
Step-size       : 2 minutes
*******************************************************************************
Target pole/equ : IAU_MOON                        {East-longitude +}
Target radii    : 1737.4 x 1737.4 x 1737.4 km     {Equator, meridian, pole}    
Center geodetic : 241.855000,34.1456000,0.0000000 {E-lon(deg),Lat(deg),Alt(km)}
Center cylindric: 241.855000,5284.21009,3559.8244 {E-lon(deg),Dxy(km),Dz(km)}
Center pole/equ : High-precision EOP model        {East-longitude +}
Center radii    : 6378.1 x 6378.1 x 6356.8 km     {Equator, meridian, pole}    
Target primary  : Earth
Vis. interferer : MOON (R_eq= 1737.400) km        {source: DE431mx}
Rel. light bend : Sun, EARTH                      {source: DE431mx}
Rel. lght bnd GM: 1.3271E+11, 3.9860E+05 km^3/s^2                              
Atmos refraction: NO (AIRLESS)
RA format       : HMS
Time format     : CAL 
RTS-only print  : NO       
EOP file        : eop.161216.p170309                                           
EOP coverage    : DATA-BASED 1962-JAN-20 TO 2016-DEC-16. PREDICTS-> 2017-MAR-08
Units conversion: 1 au= 149597870.700 km, c= 299792.458 km/s, 1 day= 86400.0 s 
Table cut-offs 1: Elevation (-90.0deg=NO ),Airmass (>38.000=NO), Daylight (NO )
Table cut-offs 2: Solar Elongation (  0.0,180.0=NO ),Local Hour Angle( 0.0=NO )
*******************************************************************************
 Date__(UT)__HR:MN     Azi_(a-appr)_Elev
****************************************
$$SOE
 2021-Oct-18 17:36 *   337.7687 -56.8718
 2021-Oct-18 17:38 *   338.6080 -57.0119
 2021-Oct-18 17:40 *   339.4534 -57.1465
 2021-Oct-18 17:42 *   340.3047 -57.2757
 2021-Oct-18 17:44 *   341.1618 -57.3992
 2021-Oct-18 17:46 *   342.0244 -57.5171
 2021-Oct-18 17:48 *   342.8924 -57.6292
 2021-Oct-18 17:50 *   343.7655 -57.7356
 2021-Oct-18 17:52 *   344.6436 -57.8361
 2021-Oct-18 17:54 *   345.5263 -57.9307
 2021-Oct-18 17:56 *   346.4135 -58.0194
 2021-Oct-18 17:58 *   347.3049 -58.1021
 2021-Oct-18 18:00 *   348.2001 -58.1787
 2021-Oct-18 18:02 *   349.0991 -58.2493
 2021-Oct-18 18:04 *   350.0014 -58.3137
 2021-Oct-18 18:06 *   350.9068 -58.3719
 2021-Oct-18 18:08 *   351.8149 -58.4239
 2021-Oct-18 18:10 *   352.7256 -58.4697
 2021-Oct-18 18:12 *   353.6384 -58.5092
 2021-Oct-18 18:14 *   354.5531 -58.5424
 2021-Oct-18 18:16 *   355.4694 -58.5693
 2021-Oct-18 18:18 *   356.3869 -58.5899
 2021-Oct-18 18:20 *   357.3052 -58.6041
 2021-Oct-18 18:22 *   358.2242 -58.6119
 2021-Oct-18 18:24 *   359.1434 -58.6135
 2021-Oct-18 18:26 *     0.0625 -58.6086
 2021-Oct-18 18:28 *     0.9812 -58.5974
 2021-Oct-18 18:30 *     1.8992 -58.5798
 2021-Oct-18 18:32 *     2.8161 -58.5559
 2021-Oct-18 18:34 *     3.7317 -58.5257
 2021-Oct-18 18:36 *     4.6455 -58.4891
 2021-Oct-18 18:38 *     5.5573 -58.4463
 2021-Oct-18 18:40 *     6.4668 -58.3972
 2021-Oct-18 18:42 *     7.3736 -58.3419
 2021-Oct-18 18:44 *     8.2775 -58.2803
 2021-Oct-18 18:46 *     9.1782 -58.2126
 2021-Oct-18 18:48 *    10.0753 -58.1388
 2021-Oct-18 18:50 *    10.9687 -58.0589
 2021-Oct-18 18:52 *    11.8580 -57.9729
 2021-Oct-18 18:54 *    12.7430 -57.8810
 2021-Oct-18 18:56 *    13.6234 -57.7831
 2021-Oct-18 18:58 *    14.4990 -57.6793
 2021-Oct-18 19:00 *    15.3696 -57.5697
 2021-Oct-18 19:02 *    16.2348 -57.4543
 2021-Oct-18 19:04 *    17.0947 -57.3332
 2021-Oct-18 19:06 *    17.9488 -57.2064
 2021-Oct-18 19:08 *    18.7971 -57.0741
 2021-Oct-18 19:10 *    19.6394 -56.9362
 2021-Oct-18 19:12 *    20.4754 -56.7929
 2021-Oct-18 19:14 *    21.3051 -56.6443
 2021-Oct-18 19:16 *    22.1283 -56.4903
 2021-Oct-18 19:18 *    22.9448 -56.3311
 2021-Oct-18 19:20 *    23.7546 -56.1667
 2021-Oct-18 19:22 *    24.5576 -55.9972
 2021-Oct-18 19:24 *    25.3535 -55.8227
 2021-Oct-18 19:26 *    26.1424 -55.6433
 2021-Oct-18 19:28 *    26.9241 -55.4591
 2021-Oct-18 19:30 *    27.6987 -55.2700
 2021-Oct-18 19:32 *    28.4659 -55.0763
 2021-Oct-18 19:34 *    29.2258 -54.8779
 2021-Oct-18 19:36 *    29.9784 -54.6750
 2021-Oct-18 19:38 *    30.7235 -54.4676
 2021-Oct-18 19:40 *    31.4612 -54.2559
 2021-Oct-18 19:42 *    32.1915 -54.0398
 2021-Oct-18 19:44 *    32.9143 -53.8195
 2021-Oct-18 19:46 *    33.6296 -53.5951
 2021-Oct-18 19:48 *    34.3375 -53.3665
 2021-Oct-18 19:50 *    35.0379 -53.1340
 2021-Oct-18 19:52 *    35.7309 -52.8975
 2021-Oct-18 19:54 *    36.4165 -52.6572
 2021-Oct-18 19:56 *    37.0947 -52.4131
 2021-Oct-18 19:58 *    37.7656 -52.1653
 2021-Oct-18 20:00 *    38.4291 -51.9139
 2021-Oct-18 20:02 *    39.0854 -51.6589
 2021-Oct-18 20:04 *    39.7345 -51.4004
 2021-Oct-18 20:06 *    40.3764 -51.1385
 2021-Oct-18 20:08 *    41.0112 -50.8733
 2021-Oct-18 20:10 *    41.6389 -50.6048
 2021-Oct-18 20:12 *    42.2597 -50.3330
 2021-Oct-18 20:14 *    42.8735 -50.0582
 2021-Oct-18 20:16 *    43.4805 -49.7802
 2021-Oct-18 20:18 *    44.0807 -49.4992
 2021-Oct-18 20:20 *    44.6742 -49.2153
 2021-Oct-18 20:22 *    45.2611 -48.9285
 2021-Oct-18 20:24 *    45.8414 -48.6388
 2021-Oct-18 20:26 *    46.4153 -48.3464
 2021-Oct-18 20:28 *    46.9827 -48.0513
 2021-Oct-18 20:30 *    47.5438 -47.7535
 2021-Oct-18 20:32 *    48.0988 -47.4531
 2021-Oct-18 20:34 *    48.6475 -47.1502
 2021-Oct-18 20:36 *    49.1902 -46.8448
 2021-Oct-18 20:38 *    49.7269 -46.5370
 2021-Oct-18 20:40 *    50.2578 -46.2268
 2021-Oct-18 20:42 *    50.7828 -45.9142
 2021-Oct-18 20:44 *    51.3021 -45.5994
 2021-Oct-18 20:46 *    51.8158 -45.2823
 2021-Oct-18 20:48 *    52.3239 -44.9631
 2021-Oct-18 20:50 *    52.8266 -44.6417
 2021-Oct-18 20:52 *    53.3239 -44.3183
 2021-Oct-18 20:54 *    53.8159 -43.9928
 2021-Oct-18 20:56 *    54.3027 -43.6653
 2021-Oct-18 20:58 *    54.7844 -43.3358
 2021-Oct-18 21:00 *    55.2610 -43.0044
 2021-Oct-18 21:02 *    55.7327 -42.6712
 2021-Oct-18 21:04 *    56.1996 -42.3361
 2021-Oct-18 21:06 *    56.6616 -41.9993
 2021-Oct-18 21:08 *    57.1190 -41.6607
 2021-Oct-18 21:10 *    57.5717 -41.3204
 2021-Oct-18 21:12 *    58.0199 -40.9784
 2021-Oct-18 21:14 *    58.4636 -40.6347
 2021-Oct-18 21:16 *    58.9030 -40.2895
 2021-Oct-18 21:18 *    59.3380 -39.9427
 2021-Oct-18 21:20 *    59.7689 -39.5944
 2021-Oct-18 21:22 *    60.1955 -39.2445
 2021-Oct-18 21:24 *    60.6182 -38.8932
 2021-Oct-18 21:26 *    61.0368 -38.5405
 2021-Oct-18 21:28 *    61.4515 -38.1863
 2021-Oct-18 21:30 *    61.8623 -37.8308
 2021-Oct-18 21:32 *    62.2694 -37.4739
 2021-Oct-18 21:34 *    62.6728 -37.1157
 2021-Oct-18 21:36 *    63.0725 -36.7562
 2021-Oct-18 21:38 *    63.4686 -36.3955
 2021-Oct-18 21:40 *    63.8613 -36.0335
 2021-Oct-18 21:42 *    64.2505 -35.6703
 2021-Oct-18 21:44 *    64.6364 -35.3060
 2021-Oct-18 21:46 *    65.0190 -34.9405
 2021-Oct-18 21:48 *    65.3983 -34.5738
 2021-Oct-18 21:50 *    65.7744 -34.2061
 2021-Oct-18 21:52 *    66.1475 -33.8373
 2021-Oct-18 21:54 *    66.5175 -33.4674
 2021-Oct-18 21:56 *    66.8845 -33.0965
 2021-Oct-18 21:58 *    67.2486 -32.7245
 2021-Oct-18 22:00 *    67.6098 -32.3516
 2021-Oct-18 22:02 *    67.9682 -31.9777
 2021-Oct-18 22:04 *    68.3239 -31.6029
 2021-Oct-18 22:06 *    68.6768 -31.2271
 2021-Oct-18 22:08 *    69.0271 -30.8504
 2021-Oct-18 22:10 *    69.3749 -30.4729
 2021-Oct-18 22:12 *    69.7201 -30.0945
 2021-Oct-18 22:14 *    70.0628 -29.7152
 2021-Oct-18 22:16 *    70.4031 -29.3351
 2021-Oct-18 22:18 *    70.7410 -28.9542
 2021-Oct-18 22:20 *    71.0765 -28.5724
 2021-Oct-18 22:22 *    71.4099 -28.1900
 2021-Oct-18 22:24 *    71.7409 -27.8067
 2021-Oct-18 22:26 *    72.0698 -27.4227
 2021-Oct-18 22:28 *    72.3966 -27.0380
 2021-Oct-18 22:30 *    72.7213 -26.6526
 2021-Oct-18 22:32 *    73.0439 -26.2665
 2021-Oct-18 22:34 *    73.3646 -25.8797
 2021-Oct-18 22:36 *    73.6833 -25.4922
 2021-Oct-18 22:38 *    74.0001 -25.1041
 2021-Oct-18 22:40 *    74.3151 -24.7154
 2021-Oct-18 22:42 *    74.6282 -24.3260
 2021-Oct-18 22:44 *    74.9395 -23.9360
 2021-Oct-18 22:46 *    75.2492 -23.5455
 2021-Oct-18 22:48 *    75.5571 -23.1544
 2021-Oct-18 22:50 *    75.8634 -22.7627
 2021-Oct-18 22:52 *    76.1680 -22.3704
 2021-Oct-18 22:54 *    76.4711 -21.9777
 2021-Oct-18 22:56 *    76.7727 -21.5844
 2021-Oct-18 22:58 *    77.0727 -21.1905
 2021-Oct-18 23:00 *    77.3714 -20.7962
 2021-Oct-18 23:02 *    77.6685 -20.4014
 2021-Oct-18 23:04 *    77.9644 -20.0062
 2021-Oct-18 23:06 *    78.2588 -19.6105
 2021-Oct-18 23:08 *    78.5520 -19.2143
 2021-Oct-18 23:10 *    78.8439 -18.8177
 2021-Oct-18 23:12 *    79.1345 -18.4206
 2021-Oct-18 23:14 *    79.4239 -18.0232
 2021-Oct-18 23:16 *    79.7122 -17.6253
 2021-Oct-18 23:18 *    79.9993 -17.2270
 2021-Oct-18 23:20 *    80.2854 -16.8284
 2021-Oct-18 23:22 *    80.5703 -16.4294
 2021-Oct-18 23:24 *    80.8542 -16.0300
 2021-Oct-18 23:26 *    81.1372 -15.6303
 2021-Oct-18 23:28 *    81.4191 -15.2302
 2021-Oct-18 23:30 *    81.7001 -14.8298
 2021-Oct-18 23:32 *    81.9802 -14.4291
 2021-Oct-18 23:34 *    82.2594 -14.0281
 2021-Oct-18 23:36 *    82.5378 -13.6267
 2021-Oct-18 23:38 *    82.8154 -13.2251
 2021-Oct-18 23:40 *    83.0921 -12.8232
 2021-Oct-18 23:42 *    83.3682 -12.4211
 2021-Oct-18 23:44 *    83.6434 -12.0186
 2021-Oct-18 23:46 *    83.9180 -11.6159
 2021-Oct-18 23:48 *    84.1920 -11.2130
 2021-Oct-18 23:50 *    84.4652 -10.8098
 2021-Oct-18 23:52 *    84.7379 -10.4064
 2021-Oct-18 23:54 *    85.0100 -10.0028
 2021-Oct-18 23:56 *    85.2816  -9.5990
 2021-Oct-18 23:58 *    85.5526  -9.1950
